              TDR Cartesian                         TDR Cartesian  
    -----------------------------------       --------------------------------
     X    =       -1806860.54                 X    =         -550731.09
     Y    =      -14947508.05  feet           Y    =        -4556000.45  meter
     Z    =      -16405720.53                 Z    =        -5000463.62
     XDOT =      20930.001480                 XDOT =        6379.464451
     YDOT =      -9918.432798  feet/sec       YDOT =       -3023.138317  meter/sec
     ZDOT =       6740.811158                 ZDOT =        2054.599241
  
  
    The mean element set is posted at the UTC for which position is
    just north of the next ascending node relative to the above
    vector time
 
 
    TWO LINE MEAN ELEMENT SET
  
    ISS
    1 25544U 98067A   16110.51251731  .00016717  00000-0  10270-3 0  9045
    2 25544  51.6449 350.7026 0001670  35.9233 324.2032 15.54301345 35851
  
  
    Satellite: ISS
    Catalog Number: 25544
    Epoch time:      16110.51251731   =   yrday.fracday
    Element set:     904
    Inclination:       51.6449  deg
    RA of node:       350.7026  deg
    Eccentricity:     .0001670     
    Arg of perigee:    35.9233  deg
    Mean anomaly:     324.2032  deg
    Mean motion:   15.54301345  rev/day
    Decay rate:    1.67170E-04  rev/day^2
    Epoch rev:            3585
    Checksum:              270
 
 
    Coasting Arc #6 (Orbit 3600)
    ---------------------------------------
 
    Vector Time (GMT): 2016/111/12:00:00.000
    Vector Time (MET): N/A
    Weight (LBS)     : 945238.6
 
              M50 Cartesian                         M50 Keplerian  
    -----------------------------------       --------------------------------
     X    =       -3271763.73                 A    =         6781523.86  meter
     Y    =        4259633.44  meter          E    =           .0011871
     Z    =        4133128.30                 I    =           51.55083
     XDOT =      -6544.110214                 Wp   =           70.52834
     YDOT =      -1361.297824  meter/sec      RA   =          345.18788  deg
     ZDOT =      -3764.620271                 TA   =           58.32962
                                              MA   =           58.21391
                                              Ha   =            221.153  n.mi
                                              Hp   =            213.955
 
              M50 Cartesian                         J2K Cartesian  
    -----------------------------------       --------------------------------
     X    =      -10734132.98                 X    =        -3339230.09
     Y    =       13975175.34  feet           Y    =         4222669.56  meter
     Z    =       13560132.23                 Z    =         4117070.42
     XDOT =     -21470.177866                 XDOT =       -6510.114308
     YDOT =      -4466.200209  feet/sec       YDOT =       -1434.288681  meter/sec
     ZDOT =     -12351.116376                 ZDOT =       -3796.327661
 
              TDR Cartesian                         TDR Cartesian  
    -----------------------------------       --------------------------------
     X    =       -2945695.97                 X    =         -897848.13
     Y    =       17428698.22  feet           Y    =         5312267.22  meter
     Z    =       13489539.51                 Z    =         4111611.64
     XDOT =     -19696.237964                 XDOT =       -6003.413331
     YDOT =       6369.434216  feet/sec       YDOT =        1941.403549  meter/sec
     ZDOT =     -12488.568158                 ZDOT =       -3806.515575
  
  
    The mean element set is posted at the UTC for which position is
    just north of the next ascending node relative to the above
    vector time
 
 
    TWO LINE MEAN ELEMENT SET
  
    ISS
    1 25544U 98067A   16111.54123815  .00016717  00000-0  10270-3 0  9051
    2 25544  51.6449 345.5732 0001747  35.4827 324.6442 15.54344937 36018
  
  
    Satellite: ISS
    Catalog Number: 25544
    Epoch time:      16111.54123815   =   yrday.fracday
    Element set:     905
    Inclination:       51.6449  deg
    RA of node:       345.5732  deg
    Eccentricity:     .0001747     
    Arg of perigee:    35.4827  deg
    Mean anomaly:     324.6442  deg
    Mean motion:   15.54344937  rev/day
    Decay rate:    1.67170E-04  rev/day^2
    Epoch rev:            3601
    Checksum:              303
 
 
    Coasting Arc #7 (Orbit 3615)
    ---------------------------------------
 
    Vector Time (GMT): 2016/112/12:00:00.000
    Vector Time (MET): N/A
    Weight (LBS)     : 945238.6
 
              M50 Cartesian                         M50 Keplerian  
    -----------------------------------       --------------------------------
     X    =        4649893.48                 A    =         6785478.74  meter
     Y    =       -4056799.77  meter          E    =           .0006300
     Z    =       -2821136.51                 I    =           51.53224
     XDOT =       5195.142917                 Wp   =           53.23690
     YDOT =       2425.079077  meter/sec      RA   =          340.19574  deg
     ZDOT =       5087.117301                 TA   =          274.68732
                                              MA   =          274.75927
                                              Ha   =            221.152  n.mi
                                              Hp   =            214.041
 
              M50 Cartesian                         J2K Cartesian  
    -----------------------------------       --------------------------------
     X    =       15255556.02                 X    =         4708616.13
     Y    =      -13309710.54  feet           Y    =        -4004473.46  meter
     Z    =       -9255697.21                 Z    =        -2798405.16
     XDOT =      17044.432144                 XDOT =        5142.927520
     YDOT =       7956.296185  feet/sec       YDOT =        2482.883074  meter/sec
     ZDOT =      16690.017392                 ZDOT =        5112.227408
 
              TDR Cartesian                         TDR Cartesian  
    -----------------------------------       --------------------------------
     X    =        6894559.80                 X    =         2101461.83
     Y    =      -19083448.02  feet           Y    =        -5816634.96  meter
     Z    =       -9156165.79                 Z    =        -2790799.33
     XDOT =      17276.488102                 XDOT =        5265.873573
     YDOT =      -1799.752271  feet/sec       YDOT =        -548.564492  meter/sec
     ZDOT =      16798.594512                 ZDOT =        5120.211607
  
  
    The mean element set is posted at the UTC for which position is
    just north of the next ascending node relative to the above
    vector time
 
 
    TWO LINE MEAN ELEMENT SET
  
    ISS
    1 25544U 98067A   16112.50565545  .00016717  00000-0  10270-3 0  9069
    2 25544  51.6441 340.7635 0001667  36.4148 323.7118 15.54315628 36168
  
  
    Satellite: ISS
    Catalog Number: 25544
    Epoch time:      16112.50565545   =   yrday.fracday
    Element set:     906
    Inclination:       51.6441  deg
    RA of node:       340.7635  deg
    Eccentricity:     .0001667     
    Arg of perigee:    36.4148  deg
    Mean anomaly:     323.7118  deg
    Mean motion:   15.54315628  rev/day
    Decay rate:    1.67170E-04  rev/day^2
    Epoch rev:            3616
    Checksum:              301
 
 
    Coasting Arc #8 (Orbit 3631)
    ---------------------------------------
 
    Vector Time (GMT): 2016/113/12:00:00.000
    Vector Time (MET): N/A
    Weight (LBS)     : 945238.6
 
              M50 Cartesian                         M50 Keplerian  
    -----------------------------------       --------------------------------
     X    =       -5625341.58                 A    =         6788247.29  meter
     Y    =        3608715.81  meter          E    =           .0014104
     Z    =        1154248.96                 I    =           51.51148
     XDOT =      -3474.284090                 Wp   =          115.78519
     YDOT =      -3526.121670  meter/sec      RA   =          335.21215  deg
     ZDOT =      -5858.159280                 TA   =           51.65699
                                              MA   =           51.53032
                                              Ha   =            221.173  n.mi
                                              Hp   =            213.953
 
              M50 Cartesian                         J2K Cartesian  
    -----------------------------------       --------------------------------
     X    =      -18455845.07                 X    =        -5670884.00
     Y    =       11839618.81  feet           Y    =         3545554.93  meter
     Z    =        3786906.05                 Z    =         1126811.10
     XDOT =     -11398.569849                 XDOT =       -3406.138945
     YDOT =     -11568.640651  feet/sec       YDOT =       -3564.592783  meter/sec
     ZDOT =     -19219.682678                 ZDOT =       -5874.871054
 
              TDR Cartesian                         TDR Cartesian  
    -----------------------------------       --------------------------------
     X    =      -10040889.60                 X    =        -3060463.15
     Y    =       19515862.15  feet           Y    =         5948434.78  meter
     Z    =        3667030.01                 Z    =         1117710.75
     XDOT =     -14135.903714                 XDOT =       -4308.623452
     YDOT =      -3616.314961  feet/sec       YDOT =       -1102.252800  meter/sec
     ZDOT =     -19291.561049                 ZDOT =       -5880.067808
  
  
    The mean element set is posted at the UTC for which position is
    just north of the next ascending node relative to the above
    vector time
 
 
    TWO LINE MEAN ELEMENT SET
  
    ISS
    1 25544U 98067A   16113.53435719  .00016717  00000-0  10270-3 0  9073
    2 25544  51.6438 335.6338 0001659  45.2850 314.8438 15.54319221 36323
  
